#aV2006 12 12  0  0   .00000000      96 DD+AD WGS84 FIT  NGA
## 1405 172800.00000000   900.00000000 54081  .0000000000000
+   30     1  2  3  4  5  6  7  8  9 10 11 12 13 14 16 17 18
+         19 20 21 22 23 24 25 26 27 28 29 30 31  0  0  0  0
+          0  0  0  0  0  0  0  0  0  0  0  0  0  0  0  0  0
+          0  0  0  0  0  0  0  0  0  0  0  0  0  0  0  0  0
+          0  0  0  0  0  0  0  0  0  0  0  0  0  0  0  0  0
++         0  0  0  0  0  0  0  0  0  0  0  0  0  0  0  0  0
++         0  0  0  0  0  0  0  0  0  0  0  0  0  0  0  0  0
++         0  0  0  0  0  0  0  0  0  0  0  0  0  0  0  0  0
++         0  0  0  0  0  0  0  0  0  0  0  0  0  0  0  0  0
++         0  0  0  0  0  0  0  0  0  0  0  0  0  0  0  0  0
%c cc cc ccc ccc cccc cccc cccc cccc ccccc ccccc ccccc ccccc
%c cc cc ccc ccc cccc cccc cccc cccc ccccc ccccc ccccc ccccc
%f  0.0000000  0.000000000  0.00000000000  0.000000000000000
%f  0.0000000  0.000000000  0.00000000000  0.000000000000000
%i    0    0    0    0      0      0      0      0         0
%i    0    0    0    0      0      0      0      0         0
/*      NGA, ST. LOUIS,MO.                                  
/*   EPHEMERIS COMPUTED FROM  3 DAYS OF DATA                
/* CCCCCCCCCCCCCCCCCCCCCCCCCCCCCCCCCCCCCCCCCCCCCCCCCCCCCCCCC
/* CCCCCCCCCCCCCCCCCCCCCCCCCCCCCCCCCCCCCCCCCCCCCCCCCCCCCCCCC
*  2006 12 12  8 45   .00000000                                                 
P  1    193.060403 -15051.089784  22085.370211     94.971659                    
V  1  26660.477058  -6617.687338  -4850.618788       .021015                    
P  2  10174.892222  21284.788735  12202.905317     63.180852                    
V  2 -13340.435836  -8842.198588  25801.899005       .035656                    
P  3  -5402.239419 -15139.940485 -21333.397756    457.711441                    
V  3  24839.856008 -10022.557175   1158.786882       .217973                    
P  4  -3606.266946  16664.136882  20222.418263    345.465670                    
V  4 -19618.978276 -17015.302192  10854.094092       .034636                    
P  5  14131.530451   8302.135806  20696.924053    422.141310                    
V  5  -4534.799759  26485.785468  -7292.715461       .212147                    
P  6  25659.341443  -6092.356691   3572.021956    513.621397                    
V  6  -2915.091504   4793.351090  30659.635521      -.175951                    
P  7  22473.002126 -12878.482631  -5619.830561    475.545798                    
V  7   8359.212374    625.387353  30029.088317      -.091465                    
P  8 -12498.407258   8508.951725 -21991.765308    -89.240193                    
V  8 -19310.571867 -19632.337842   2973.791538      -.014288                    
P  9  21221.269240  15871.713248   2600.248817     48.477176                    
V  9   1352.506248   4530.932138 -31442.002884       .015961                    
P 10   2766.792778  23270.364678 -12288.426104     94.266572                    
V 10  -6010.685944  14516.302014  26658.303276       .005685                    
P 11 -23632.305706 -11628.130403   4352.955979      -.670767                    
V 11  -2192.734237  -6888.527881 -29398.716949       .015599                    
P 12  13351.441533   8691.512993  21361.624787    -88.568109                    
V 12  -6443.211775  26097.421675  -6588.042269       .106867                    
P 13 -25716.541636   6482.281303    844.278580    121.589124                    
V 13    656.377598  -2060.487569  32465.538691       .037896                    
P 14  16628.702110 -14794.677693  14522.078312      1.416866                    
V 14  17972.865857  -3632.149044 -24487.523463       .011072                    
P 16    589.131648 -25320.324895  -7704.102300    100.946644                    
V 16   4949.626265  -9011.022587  29812.930354       .039611                    
P 17 -16461.938821  15296.613143  14064.509588     86.555064                    
V 17 -17801.066395   3044.049079 -24243.939424      -.014220                    
P 18  15929.136813 -11986.313616 -17260.312151   -253.431327                    
V 18  -3936.507747  22056.212046 -19121.685234      -.002528                    
P 19 -15202.367832 -10219.040170 -19168.774586     43.941355                    
V 19  23531.453314  -7037.810972 -14748.523750       .042213                    
P 20 -14495.920596  -5152.940718  21562.857450    -21.806591                    
V 20   6064.234432 -26938.537565  -2313.443306      -.000154                    
P 21  17451.535026  -3026.079129 -19851.980469     64.749032                    
V 21  17212.873013  18609.601177  11688.933934       .013787                    
P 22  11844.167216 -22509.287561  -7451.892031    155.361801                    
V 22    191.258363  10125.332827 -29654.599675       .024597                    
P 23 -23914.536072   -985.014355  11640.805818    142.561649                    
V 23  13564.811303  -6305.831405  26958.590727       .010204                    
P 24  11786.324761  21740.250799   9522.071563     59.421427                    
V 24 -10284.415182  -6587.153820  28661.545407       .030815                    
P 25  -3702.594108 -19146.438064  18363.654864    404.330213                    
V 25  18872.705276  12487.560838  17362.952509      -.037150                    
P 26  14503.673590   9930.697800 -20498.778953    -43.976857                    
V 26 -23882.829567   6942.885157 -13256.987678      -.168942                    
P 27 -19291.396534    186.480777 -17755.063767     82.715980                    
V 27 -17322.600543 -16270.047159  17739.199635       .020764                    
P 28 -13002.111732  19940.117788 -11097.291548     12.201472                    
V 28    889.419262 -14912.807498 -27444.480607      -.008748                    
P 29  10036.100364  11684.249793 -21458.183198    256.071246                    
V 29 -26302.524152   8558.562426  -7247.126426       .232284                    
P 30  15912.070136  -5452.571271  20226.817674     19.188639                    
V 30  -3809.471683  26200.461546  10021.589414       .011152                    
P 31   -387.114132 -18576.678356  19156.769817    -23.351757                    
V 31  18510.973670  15228.276311  15339.130619       .077547                    
EOF
